{"type": "FeatureCollection", "features": [ {"type": "Feature", "properties": {"norad_id": 36366, "name": "COSMOS 2251 DEB", "group": "cosmos-2251-debris", "lat": 22.087174403395377, "lon": 67.93146541661018, "alt_km": 815.1225130198882, "timestamp": "2025-12-22T20:43:46.245261+00:00", "meta": {"OBJECT_NAME": "COSMOS 2251 DEB", "OBJECT_ID": "1993-036AYT", "EPOCH": "2025-12-21T17:11:32.767008", "MEAN_MOTION": 14.33460542, "ECCENTRICITY": 0.00902396, "INCLINATION": 74.0657, "RA_OF_ASC_NODE": 256.6822, "ARG_OF_PERICENTER": 283.124, "MEAN_ANOMALY": 75.9853, "EPHEMERIS_TYPE": 0, "CLASSIFICATION_TYPE": "U", "NORAD_CAT_ID": 36366, "ELEMENT_SET_NO": 999, "REV_AT_EPOCH": 86417, "BSTAR": 0.0010533139, "MEAN_MOTION_DOT": 3.019e-05, "MEAN_MOTION_DDOT": 0}, "tle": {"line1": "1 36366U 93036AYT 25355.71635147  .00003019  00000+0  10533-2 0  9995", "line2": "2 36366  74.0657 256.6822 0090239 283.1240  75.9853 14.33460542864174"}}, "geometry": {"type": "Point", "coordinates": [67.93146541661018, 22.087174403395377]}}, {"type": "Feature", "properties": {"norad_id": 36367, "name": "COSMOS 2251 DEB", "group": "cosmos-2251-debris", "lat": -71.39478612750497, "lon": 156.4922341052824, "alt_km": 757.3321464432847, "timestamp": "2025-12-22T20:43:46.245271+00:00", "meta": {"OBJECT_NAME": "COSMOS 2251 DEB", "OBJECT_ID": "1993-036AYU", "EPOCH": "2025-12-20T08:29:16.285344", "MEAN_MOTION": 13.86366524, "ECCENTRICITY": 0.02619085, "INCLINATION": 74.1004, "RA_OF_ASC_NODE": 218.5774, "ARG_OF_PERICENTER": 289.7911, "MEAN_ANOMALY": 67.515, "EPHEMERIS_TYPE": 0, "CLASSIFICATION_TYPE": "U", "NORAD_CAT_ID": 36367, "ELEMENT_SET_NO": 999, "REV_AT_EPOCH": 57635, "BSTAR": 0.0011101793, "MEAN_MOTION_DOT": 1.658e-05, "MEAN_MOTION_DDOT": 0}, "tle": {"line1": "1 36367U 93036AYU 25354.35366071  .00001658  00000+0  11102-2 0  9992", "line2": "2 36367  74.1004 218.5774 0261908 289.7911  67.5150 13.86366524576354"}}, "geometry": {"type": "Point", "coordinates": [156.4922341052824, -71.39478612750497]}}, {"type": "Feature", "properties": {"norad_id": 36369, "name": "COSMOS 2251 DEB", "group": "cosmos-2251-debris", "lat": 17.960546309760325, "lon": 56.308230848519536, "alt_km": 651.4168340981432, "timestamp": "2025-12-22T20:43:46.245281+00:00", "meta": {"OBJECT_NAME": "COSMOS 2251 DEB", "OBJECT_ID": "1993-036AYW", "EPOCH": "2025-12-21T10:25:50.498400", "MEAN_MOTION": 14.73682344, "ECCENTRICITY": 0.0010476, "INCLINATION": 74.0314, "RA_OF_ASC_NODE": 53.7689, "ARG_OF_PERICENTER": 128.4088, "MEAN_ANOMALY": 231.8027, "EPHEMERIS_TYPE": 0, "CLASSIFICATION_TYPE": "U", "NORAD_CAT_ID": 36369, "ELEMENT_SET_NO": 999, "REV_AT_EPOCH": 86050, "BSTAR": 0.00084133, "MEAN_MOTION_DOT": 5.466e-05, "MEAN_MOTION_DDOT": 0}, "tle": {"line1": "1 36369U 93036AYW 25355.43461225  .00005466  00000+0  84133-3 0  9997", "line2": "2 36369  74.0314  53.7689 0010476 128.4088 231.8027 14.73682344860509"}}, "geometry": {"type": "Point", "coordinates": [56.308230848519536, 17.960546309760325]}}, {"type": "Feature", "properties": {"norad_id": 36371, "name": "COSMOS 2251 DEB", "group": "cosmos-2251-debris", "lat": -2.160121322238929, "lon": -37.52413559905268, "alt_km": 655.1491453198023, "timestamp": "2025-12-22T20:43:46.245290+00:00", "meta": {"OBJECT_NAME": "COSMOS 2251 DEB", "OBJECT_ID": "1993-036AYY", "EPOCH": "2025-12-22T03:34:47.193312", "MEAN_MOTION": 14.70793621, "ECCENTRICITY": 0.0008891, "INCLINATION": 74.0127, "RA_OF_ASC_NODE": 143.2448, "ARG_OF_PERICENTER": 182.3975, "MEAN_ANOMALY": 177.7155, "EPHEMERIS_TYPE": 0, "CLASSIFICATION_TYPE": "U", "NORAD_CAT_ID": 36371, "ELEMENT_SET_NO": 999, "REV_AT_EPOCH": 71583, "BSTAR": 0.002149597, "MEAN_MOTION_DOT": 0.00013129, "MEAN_MOTION_DDOT": 0}, "tle": {"line1": "1 36371U 93036AYY 25356.14915733  .00013129  00000+0  21496-2 0  9994", "line2": "2 36371  74.0127 143.2448 0008891 182.3975 177.7155 14.70793621715837"}}, "geometry": {"type": "Point", "coordinates": [-37.52413559905268, -2.160121322238929]}}, {"type": "Feature", "properties": {"norad_id": 36379, "name": "COSMOS 2251 DEB", "group": "cosmos-2251-debris", "lat": 14.738336921186438, "lon": 103.8836325420527, "alt_km": 782.899198575441, "timestamp": "2025-12-22T20:43:46.245300+00:00", "meta": {"OBJECT_NAME": "COSMOS 2251 DEB", "OBJECT_ID": "1993-036AZG", "EPOCH": "2025-12-21T02:14:38.502816", "MEAN_MOTION": 14.36091919, "ECCENTRICITY": 0.00448164, "INCLINATION": 74.0129, "RA_OF_ASC_NODE": 291.4624, "ARG_OF_PERICENTER": 57.9805, "MEAN_ANOMALY": 317.791, "EPHEMERIS_TYPE": 0, "CLASSIFICATION_TYPE": "U", "NORAD_CAT_ID": 36379, "ELEMENT_SET_NO": 999, "REV_AT_EPOCH": 64948, "BSTAR": 0.00021634378, "MEAN_MOTION_DOT": 6.11e-06, "MEAN_MOTION_DDOT": 0}, "tle": {"line1": "1 36379U 93036AZG 25355.09350119  .00000611  00000+0  21634-3 0  9993", "line2": "2 36379  74.0129 291.4624 0044816  57.9805 317.7910 14.36091919649480"}}, "geometry": {"type": "Point", "coordinates": [103.8836325420527, 14.738336921186438]}}, {"type": "Feature", "properties": {"norad_id": 36385, "name": "COSMOS 2251 DEB", "group": "cosmos-2251-debris", "lat": 7.726525350602489, "lon": 136.97721920600378, "alt_km": 605.1284602282776, "timestamp": "2025-12-22T20:43:46.245310+00:00", "meta": {"OBJECT_NAME": "COSMOS 2251 DEB", "OBJECT_ID": "1993-036AZN", "EPOCH": "2025-12-20T19:47:03.334560", "MEAN_MOTION": 14.72696016, "ECCENTRICITY": 0.01415357, "INCLINATION": 73.9698, "RA_OF_ASC_NODE": 138.7285, "ARG_OF_PERICENTER": 311.3318, "MEAN_ANOMALY": 47.5743, "EPHEMERIS_TYPE": 0, "CLASSIFICATION_TYPE": "U", "NORAD_CAT_ID": 36385, "ELEMENT_SET_NO": 999, "REV_AT_EPOCH": 85221, "BSTAR": 0.0008039038, "MEAN_MOTION_DOT": 5.978e-05, "MEAN_MOTION_DDOT": 0}, "tle": {"line1": "1 36385U 93036AZN 25354.82434415  .00005978  00000+0  80390-3 0  9997", "line2": "2 36385  73.9698 138.7285 0141535 311.3318  47.5743 14.72696016852212"}}, "geometry": {"type": "Point", "coordinates": [136.97721920600378, 7.726525350602489]}}, {"type": "Feature", "properties": {"norad_id": 36420, "name": "COSMOS 2251 DEB", "group": "cosmos-2251-debris", "lat": 67.04928429879601, "lon": -60.60454862224686, "alt_km": 762.0178756416408, "timestamp": "2025-12-22T20:43:46.245320+00:00", "meta": {"OBJECT_NAME": "COSMOS 2251 DEB", "OBJECT_ID": "1993-036AZT", "EPOCH": "2025-12-21T02:55:38.256384", "MEAN_MOTION": 14.36907864, "ECCENTRICITY": 0.00184562, "INCLINATION": 74.0376, "RA_OF_ASC_NODE": 260.0713, "ARG_OF_PERICENTER": 346.0954, "MEAN_ANOMALY": 80.7548, "EPHEMERIS_TYPE": 0, "CLASSIFICATION_TYPE": "U", "NORAD_CAT_ID": 36420, "ELEMENT_SET_NO": 999, "REV_AT_EPOCH": 85157, "BSTAR": 0.00010545411, "MEAN_MOTION_DOT": 2.86e-06, "MEAN_MOTION_DDOT": 0}, "tle": {"line1": "1 36420U 93036AZT 25355.12197056  .00000286  00000+0  10545-3 0  9990", "line2": "2 36420  74.0376 260.0713 0018456 346.0954  80.7548 14.36907864851574"}}, "geometry": {"type": "Point", "coordinates": [-60.60454862224686, 67.04928429879601]}}, {"type": "Feature", "properties": {"norad_id": 36430, "name": "COSMOS 2251 DEB", "group": "cosmos-2251-debris", "lat": 55.031955666662135, "lon": -114.05759605235447, "alt_km": 824.1042547301786, "timestamp": "2025-12-22T20:43:46.245331+00:00", "meta": {"OBJECT_NAME": "COSMOS 2251 DEB", "OBJECT_ID": "1993-036BAD", "EPOCH": "2025-12-17T14:02:08.838528", "MEAN_MOTION": 14.27804633, "ECCENTRICITY": 0.00972961, "INCLINATION": 74.0048, "RA_OF_ASC_NODE": 99.7344, "ARG_OF_PERICENTER": 248.7934, "MEAN_ANOMALY": 110.2799, "EPHEMERIS_TYPE": 0, "CLASSIFICATION_TYPE": "U", "NORAD_CAT_ID": 36430, "ELEMENT_SET_NO": 999, "REV_AT_EPOCH": 64626, "BSTAR": 0.00041842357, "MEAN_MOTION_DOT": 1.061e-05, "MEAN_MOTION_DDOT": 0}, "tle": {"line1": "1 36430U 93036BAD 25351.58482452  .00001061  00000+0  41842-3 0  9990", "line2": "2 36430  74.0048  99.7344 0097296 248.7934 110.2799 14.27804633646268"}}, "geometry": {"type": "Point", "coordinates": [-114.05759605235447, 55.031955666662135]}}, {"type": "Feature", "properties": {"norad_id": 36437, "name": "COSMOS 2251 DEB", "group": "cosmos-2251-debris", "lat": -66.59892091050166, "lon": -124.03976230913253, "alt_km": 649.1510013556517, "timestamp": "2025-12-22T20:43:46.245341+00:00", "meta": {"OBJECT_NAME": "COSMOS 2251 DEB", "OBJECT_ID": "1993-036BAL", "EPOCH": "2025-12-20T18:36:38.364192", "MEAN_MOTION": 14.70810572, "ECCENTRICITY": 0.00231641, "INCLINATION": 73.942, "RA_OF_ASC_NODE": 18.3096, "ARG_OF_PERICENTER": 249.5495, "MEAN_ANOMALY": 110.3188, "EPHEMERIS_TYPE": 0, "CLASSIFICATION_TYPE": "U", "NORAD_CAT_ID": 36437, "ELEMENT_SET_NO": 999, "REV_AT_EPOCH": 66169, "BSTAR": 0.00075908188, "MEAN_MOTION_DOT": 4.626e-05, "MEAN_MOTION_DDOT": 0}, "tle": {"line1": "1 36437U 93036BAL 25354.77544403  .00004626  00000+0  75908-3 0  9996", "line2": "2 36437  73.9420  18.3096 0023164 249.5495 110.3188 14.70810572661696"}}, "geometry": {"type": "Point", "coordinates": [-124.03976230913253, -66.59892091050166]}}, {"type": "Feature", "properties": {"norad_id": 36439, "name": "COSMOS 2251 DEB", "group": "cosmos-2251-debris", "lat": 24.57874212699333, "lon": 28.119255916128417, "alt_km": 814.253595210982, "timestamp": "2025-12-22T20:43:46.245351+00:00", "meta": {"OBJECT_NAME": "COSMOS 2251 DEB", "OBJECT_ID": "1993-036BAN", "EPOCH": "2025-12-16T11:25:24.463776", "MEAN_MOTION": 13.47804354, "ECCENTRICITY": 0.04280619, "INCLINATION": 73.9685, "RA_OF_ASC_NODE": 30.7531, "ARG_OF_PERICENTER": 1.8523, "MEAN_ANOMALY": 358.4044, "EPHEMERIS_TYPE": 0, "CLASSIFICATION_TYPE": "U", "NORAD_CAT_ID": 36439, "ELEMENT_SET_NO": 999, "REV_AT_EPOCH": 58663, "BSTAR": 0.0011092098, "MEAN_MOTION_DOT": 1.175e-05, "MEAN_MOTION_DDOT": 0}, "tle": {"line1": "1 36439U 93036BAN 25350.47597759  .00001175  00000+0  11092-2 0  9992", "line2": "2 36439  73.9685  30.7531 0428061   1.8523 358.4044 13.47804354586639"}}, "geometry": {"type": "Point", "coordinates": [28.119255916128417, 24.57874212699333]}}]}